{
  "norad_id": 47388,
  "name": "STARLINK-2109",
  "history": [
    {
      "epoch": "2026-05-02T09:57:48.148704Z",
      "apogee_km": 476.1457642286123,
      "perigee_km": 473.84585285806406,
      "latitude_deg": 1.316038961971228e-05,
      "longitude_deg": 166.71888061305864,
      "height_km": 475.68887403475503,
      "semi_major_axis_km": 6853.132808543338,
      "eccentricity": 0.0001678,
      "inclination_deg": 53.1518,
      "raan_deg": 176.503,
      "arg_perigee_deg": 79.8007,
      "mean_anomaly_deg": 280.3183,
      "mean_motion_rev_day": 15.30273437
    },
    {
      "epoch": "2026-05-03T20:00:01.999008Z",
      "apogee_km": 471.6280319871885,
      "perigee_km": 469.8610205534105,
      "latitude_deg": -52.82914143666714,
      "longitude_deg": -92.5302800168444,
      "height_km": 489.98413561959063,
      "semi_major_axis_km": 6848.881526270299,
      "eccentricity": 0.000129,
      "inclination_deg": 53.1592,
      "raan_deg": 169.9027,
      "arg_perigee_deg": 79.8734,
      "mean_anomaly_deg": 183.6528,
      "mean_motion_rev_day": 15.3169848
    },
    {
      "epoch": "2026-05-04T20:00:01.999008Z",
      "apogee_km": 471.67247649084493,
      "perigee_km": 469.7739724366229,
      "latitude_deg": 16.44674359479451,
      "longitude_deg": 15.227724257589056,
      "height_km": 470.42945097219905,
      "semi_major_axis_km": 6848.860224463733,
      "eccentricity": 0.0001386,
      "inclination_deg": 53.1589,
      "raan_deg": 165.2472,
      "arg_perigee_deg": 76.3088,
      "mean_anomaly_deg": 304.3945,
      "mean_motion_rev_day": 15.31705626
    }
  ]
}